STARLINK-30069          
1 56834U 23079M   26067.48212902 -.00002416  00000+0 -80472-4 0  9995
2 56834  42.9986 110.4464 0000469 272.6695  87.4103 15.26726881152740
STARLINK-34224          
1 64251U 25119U   26068.04561177  .00037960  00000+0  13817-2 0  9995
2 64251  43.0030 310.4451 0001835 257.2623 102.8023 15.27583101 44076
